{
    "links": {
        "self": "http://www.neowsapp.com/rest/v1/neo/3989081?api_key=iIulBulltgU6a56xZRHN4H3l9WmuAYTsLGpBGhQ2"
    },
    "id": "3989081",
    "neo_reference_id": "3989081",
    "name": "(2020 BY4)",
    "designation": "2020 BY4",
    "nasa_jpl_url": "http://ssd.jpl.nasa.gov/sbdb.cgi?sstr=3989081",
    "absolute_magnitude_h": 26.135,
    "estimated_diameter": {
        "kilometers": {
            "estimated_diameter_min": 0.0157599551,
            "estimated_diameter_max": 0.035240331
        },
        "meters": {
            "estimated_diameter_min": 15.7599551273,
            "estimated_diameter_max": 35.2403309871
        },
        "miles": {
            "estimated_diameter_min": 0.0097927791,
            "estimated_diameter_max": 0.0218973197
        },
        "feet": {
            "estimated_diameter_min": 51.70589118,
            "estimated_diameter_max": 115.6178875156
        }
    },
    "is_potentially_hazardous_asteroid": false,
    "close_approach_data": [
        {
            "close_approach_date": "1928-09-10",
            "close_approach_date_full": "1928-Sep-10 19:09",
            "epoch_date_close_approach": -1303534260000,
            "relative_velocity": {
                "kilometers_per_second": "4.777687799",
                "kilometers_per_hour": "17199.6760763058",
                "miles_per_hour": "10687.2098375246"
            },
            "miss_distance": {
                "astronomical": "1.5031844379",
                "lunar": "584.7387463431",
                "kilometers": "224873190.126987273",
                "miles": "139729720.9916514474"
            },
            "orbiting_body": "Juptr"
        },
        {
            "close_approach_date": "1930-01-19",
            "close_approach_date_full": "1930-Jan-19 23:29",
            "epoch_date_close_approach": -1260664260000,
            "relative_velocity": {
                "kilometers_per_second": "25.6729945738",
                "kilometers_per_hour": "92422.7804655317",
                "miles_per_hour": "57427.9215620411"
            },
            "miss_distance": {
                "astronomical": "0.1875398819",
                "lunar": "72.9530140591",
                "kilometers": "28055566.872291553",
                "miles": "17432920.8791593114"
            },
            "orbiting_body": "Earth"
        },
        {
            "close_approach_date": "1962-03-11",
            "close_approach_date_full": "1962-Mar-11 06:50",
            "epoch_date_close_approach": -246474600000,
            "relative_velocity": {
                "kilometers_per_second": "15.4174295379",
                "kilometers_per_hour": "55502.7463362668",
                "miles_per_hour": "34487.2481332209"
            },
            "miss_distance": {
                "astronomical": "0.3006823108",
                "lunar": "116.9654189012",
                "kilometers": "44981433.242357996",
                "miles": "27950166.5503565048"
            },
            "orbiting_body": "Earth"
        },
        {
            "close_approach_date": "2020-01-27",
            "close_approach_date_full": "2020-Jan-27 22:08",
            "epoch_date_close_approach": 1580162880000,
            "relative_velocity": {
                "kilometers_per_second": "21.1562242278",
                "kilometers_per_hour": "76162.4072202312",
                "miles_per_hour": "47324.3579752598"
            },
            "miss_distance": {
                "astronomical": "0.0177012156",
                "lunar": "6.8857728684",
                "kilometers": "2648064.150170772",
                "miles": "1645430.7632777736"
            },
            "orbiting_body": "Earth"
        }
    ],
    "orbital_data": {
        "orbit_id": "4",
        "orbit_determination_date": "2020-02-01 05:47:43",
        "first_observation_date": "2020-01-20",
        "last_observation_date": "2020-01-26",
        "data_arc_in_days": 6,
        "observations_used": 29,
        "orbit_uncertainty": "8",
        "minimum_orbit_intersection": ".00186672",
        "jupiter_tisserand_invariant": "3.457",
        "epoch_osculation": "2458871.5",
        "eccentricity": ".6991372256561517",
        "semi_major_axis": "2.029396149510361",
        "inclination": "1.725326915333562",
        "ascending_node_longitude": "131.858081134111",
        "orbital_period": "1055.962936143846",
        "perihelion_distance": ".6105697557844103",
        "perihelion_argument": "81.94758939440545",
        "aphelion_distance": "3.448222543236311",
        "perihelion_time": "2458921.838405748704",
        "mean_anomaly": "342.8385775208072",
        "mean_motion": ".3409210566751935",
        "equinox": "J2000",
        "orbit_class": {
            "orbit_class_type": "APO",
            "orbit_class_description": "Near-Earth asteroid orbits which cross the Earth’s orbit similar to that of 1862 Apollo",
            "orbit_class_range": "a (semi-major axis) > 1.0 AU; q (perihelion) < 1.017 AU"
        }
    },
    "is_sentry_object": false
}